[{"OBJECT_NAME":"STARLINK-5338","OBJECT_ID":"2023-010T","EPOCH":"2026-03-09T22:19:02.839008","MEAN_MOTION":14.98334815,"ECCENTRICITY":0.00027101,"INCLINATION":70.002,"RA_OF_ASC_NODE":23.9157,"ARG_OF_PERICENTER":265.6845,"MEAN_ANOMALY":94.4004,"EPHEMERIS_TYPE":0,"CLASSIFICATION_TYPE":"U","NORAD_CAT_ID":55286,"ELEMENT_SET_NO":999,"REV_AT_EPOCH":17330,"BSTAR":-8.1875883e-5,"MEAN_MOTION_DOT":-1.07e-5,"MEAN_MOTION_DDOT":0},{"OBJECT_NAME":"QPS-SAR-14 (YACHIHOKO-I)","OBJECT_ID":"2025-252A","EPOCH":"2026-03-09T23:58:05.760192","MEAN_MOTION":14.98763566,"ECCENTRICITY":0.00075988,"INCLINATION":42.0055,"RA_OF_ASC_NODE":316.7582,"ARG_OF_PERICENTER":330.3293,"MEAN_ANOMALY":29.71,"EPHEMERIS_TYPE":0,"CLASSIFICATION_TYPE":"U","NORAD_CAT_ID":66316,"ELEMENT_SET_NO":999,"REV_AT_EPOCH":1862,"BSTAR":0.00051193076,"MEAN_MOTION_DOT":6.093e-5,"MEAN_MOTION_DDOT":0}]
